STARLINK-37193          
1 68390U 26063L   26092.75002315  .01016607  53475-3  17611-2 0  9991
2 68390  97.2826 233.5495 0000283 136.7849  29.7854 16.02419362  2320
